{"type": "FeatureCollection", "features": [ {"type": "Feature", "properties": {"norad_id": 32289, "name": "YAOGAN-3", "group": "resource", "lat": -62.50842971907932, "lon": 39.48734881566335, "alt_km": 606.1091328661769, "timestamp": "2025-12-23T14:49:08.986057+00:00", "meta": {"OBJECT_NAME": "YAOGAN-3", "OBJECT_ID": "2007-055A", "EPOCH": "2025-12-23T07:02:41.753184", "MEAN_MOTION": 14.89907467, "ECCENTRICITY": 0.00011932, "INCLINATION": 97.8348, "RA_OF_ASC_NODE": 23.8229, "ARG_OF_PERICENTER": 84.4761, "MEAN_ANOMALY": 275.6593, "EPHEMERIS_TYPE": 0, "CLASSIFICATION_TYPE": "U", "NORAD_CAT_ID": 32289, "ELEMENT_SET_NO": 999, "REV_AT_EPOCH": 97966, "BSTAR": 0.00048392308, "MEAN_MOTION_DOT": 4.601e-05, "MEAN_MOTION_DDOT": 0}, "tle": {"line1": "1 32289U 07055A   25357.29353881  .00004601  00000+0  48392-3 0  9991", "line2": "2 32289  97.8348  23.8229 0001193  84.4761 275.6593 14.89907467979664"}}, "geometry": {"type": "Point", "coordinates": [39.48734881566335, -62.50842971907932]}}, {"type": "Feature", "properties": {"norad_id": 32376, "name": "COSMO-SKYMED 2", "group": "resource", "lat": -81.45925713316952, "lon": -113.95927307606729, "alt_km": 630.7859367946867, "timestamp": "2025-12-23T14:49:08.986070+00:00", "meta": {"OBJECT_NAME": "COSMO-SKYMED 2", "OBJECT_ID": "2007-059A", "EPOCH": "2025-12-23T07:06:31.381056", "MEAN_MOTION": 14.82154959, "ECCENTRICITY": 0.00013148, "INCLINATION": 97.8805, "RA_OF_ASC_NODE": 178.461, "ARG_OF_PERICENTER": 82.6947, "MEAN_ANOMALY": 277.4415, "EPHEMERIS_TYPE": 0, "CLASSIFICATION_TYPE": "U", "NORAD_CAT_ID": 32376, "ELEMENT_SET_NO": 999, "REV_AT_EPOCH": 97594, "BSTAR": 7.159144e-05, "MEAN_MOTION_DOT": 5.18e-06, "MEAN_MOTION_DDOT": 0}, "tle": {"line1": "1 32376U 07059A   25357.29619654  .00000518  00000+0  71591-4 0  9996", "line2": "2 32376  97.8805 178.4610 0001314  82.6947 277.4415 14.82154959975944"}}, "geometry": {"type": "Point", "coordinates": [-113.95927307606729, -81.45925713316952]}}, {"type": "Feature", "properties": {"norad_id": 32382, "name": "RADARSAT-2", "group": "resource", "lat": -17.199053627004233, "lon": 4.727436466303514, "alt_km": 796.8074844271796, "timestamp": "2025-12-23T14:49:08.986082+00:00", "meta": {"OBJECT_NAME": "RADARSAT-2", "OBJECT_ID": "2007-061A", "EPOCH": "2025-12-23T06:30:13.872960", "MEAN_MOTION": 14.29985581, "ECCENTRICITY": 0.00011325, "INCLINATION": 98.5791, "RA_OF_ASC_NODE": 1.7078, "ARG_OF_PERICENTER": 84.5857, "MEAN_ANOMALY": 275.5455, "EPHEMERIS_TYPE": 0, "CLASSIFICATION_TYPE": "U", "NORAD_CAT_ID": 32382, "ELEMENT_SET_NO": 999, "REV_AT_EPOCH": 94081, "BSTAR": 0.00016597604, "MEAN_MOTION_DOT": 3.84e-06, "MEAN_MOTION_DDOT": 0}, "tle": {"line1": "1 32382U 07061A   25357.27099390  .00000384  00000+0  16598-3 0  9999", "line2": "2 32382  98.5791   1.7078 0001132  84.5857 275.5455 14.29985581940813"}}, "geometry": {"type": "Point", "coordinates": [4.727436466303514, -17.199053627004233]}}, {"type": "Feature", "properties": {"norad_id": 32783, "name": "CARTOSAT-2A", "group": "resource", "lat": -71.00628553842411, "lon": 70.54055534225344, "alt_km": 634.0948492927419, "timestamp": "2025-12-23T14:49:08.986095+00:00", "meta": {"OBJECT_NAME": "CARTOSAT-2A", "OBJECT_ID": "2008-021A", "EPOCH": "2025-12-23T07:01:39.400896", "MEAN_MOTION": 14.78948446, "ECCENTRICITY": 0.00111058, "INCLINATION": 97.7913, "RA_OF_ASC_NODE": 46.7862, "ARG_OF_PERICENTER": 329.8303, "MEAN_ANOMALY": 30.2268, "EPHEMERIS_TYPE": 0, "CLASSIFICATION_TYPE": "U", "NORAD_CAT_ID": 32783, "ELEMENT_SET_NO": 999, "REV_AT_EPOCH": 95280, "BSTAR": -6.2791078e-05, "MEAN_MOTION_DOT": -5.14e-06, "MEAN_MOTION_DDOT": 0}, "tle": {"line1": "1 32783U 08021A   25357.29281714 -.00000514  00000+0 -62791-4 0  9990", "line2": "2 32783  97.7913  46.7862 0011105 329.8303  30.2268 14.78948446952800"}}, "geometry": {"type": "Point", "coordinates": [70.54055534225344, -71.00628553842411]}}, {"type": "Feature", "properties": {"norad_id": 33320, "name": "HUANJING 1A (HJ-1A)", "group": "resource", "lat": -32.51032195994606, "lon": -9.62121758531597, "alt_km": 613.2521364606573, "timestamp": "2025-12-23T14:49:08.986107+00:00", "meta": {"OBJECT_NAME": "HUANJING 1A (HJ-1A)", "OBJECT_ID": "2008-041A", "EPOCH": "2025-12-23T06:52:19.299072", "MEAN_MOTION": 14.83426962, "ECCENTRICITY": 0.00193784, "INCLINATION": 97.6543, "RA_OF_ASC_NODE": 345.1446, "ARG_OF_PERICENTER": 1.0541, "MEAN_ANOMALY": 359.0711, "EPHEMERIS_TYPE": 0, "CLASSIFICATION_TYPE": "U", "NORAD_CAT_ID": 33320, "ELEMENT_SET_NO": 999, "REV_AT_EPOCH": 93232, "BSTAR": 0.00022618692, "MEAN_MOTION_DOT": 1.812e-05, "MEAN_MOTION_DDOT": 0}, "tle": {"line1": "1 33320U 08041A   25357.28633448  .00001812  00000+0  22619-3 0  9998", "line2": "2 33320  97.6543 345.1446 0019378   1.0541 359.0711 14.83426962932323"}}, "geometry": {"type": "Point", "coordinates": [-9.62121758531597, -32.51032195994606]}}, {"type": "Feature", "properties": {"norad_id": 33321, "name": "HUANJING 1B (HJ-1B)", "group": "resource", "lat": 13.462728702326192, "lon": 170.97163385487775, "alt_km": 636.6445396827539, "timestamp": "2025-12-23T14:49:08.986120+00:00", "meta": {"OBJECT_NAME": "HUANJING 1B (HJ-1B)", "OBJECT_ID": "2008-041B", "EPOCH": "2025-12-23T05:58:37.133760", "MEAN_MOTION": 14.82846017, "ECCENTRICITY": 0.00378657, "INCLINATION": 97.64, "RA_OF_ASC_NODE": 348.7781, "ARG_OF_PERICENTER": 42.4143, "MEAN_ANOMALY": 317.9987, "EPHEMERIS_TYPE": 0, "CLASSIFICATION_TYPE": "U", "NORAD_CAT_ID": 33321, "ELEMENT_SET_NO": 999, "REV_AT_EPOCH": 93233, "BSTAR": 0.00012646339, "MEAN_MOTION_DOT": 9.85e-06, "MEAN_MOTION_DDOT": 0}, "tle": {"line1": "1 33321U 08041B   25357.24904090  .00000985  00000+0  12646-3 0  9998", "line2": "2 33321  97.6400 348.7781 0037865  42.4143 317.9987 14.82846017932330"}}, "geometry": {"type": "Point", "coordinates": [170.97163385487775, 13.462728702326192]}}, {"type": "Feature", "properties": {"norad_id": 33331, "name": "GEOEYE 1", "group": "resource", "lat": 15.141689127464758, "lon": -109.02426663802102, "alt_km": 678.2317135490257, "timestamp": "2025-12-23T14:49:08.986132+00:00", "meta": {"OBJECT_NAME": "GEOEYE 1", "OBJECT_ID": "2008-042A", "EPOCH": "2025-12-23T04:13:57.785664", "MEAN_MOTION": 14.64713746, "ECCENTRICITY": 0.00029135, "INCLINATION": 98.1239, "RA_OF_ASC_NODE": 68.3251, "ARG_OF_PERICENTER": 239.3644, "MEAN_ANOMALY": 120.7272, "EPHEMERIS_TYPE": 0, "CLASSIFICATION_TYPE": "U", "NORAD_CAT_ID": 33331, "ELEMENT_SET_NO": 999, "REV_AT_EPOCH": 92438, "BSTAR": 0.00011627381, "MEAN_MOTION_DOT": 5.71e-06, "MEAN_MOTION_DDOT": 0}, "tle": {"line1": "1 33331U 08042A   25357.17636326  .00000571  00000+0  11627-3 0  9995", "line2": "2 33331  98.1239  68.3251 0002913 239.3644 120.7272 14.64713746924388"}}, "geometry": {"type": "Point", "coordinates": [-109.02426663802102, 15.141689127464758]}}, {"type": "Feature", "properties": {"norad_id": 33396, "name": "THEOS", "group": "resource", "lat": 73.90417349971773, "lon": 23.816814498072414, "alt_km": 817.0846168907347, "timestamp": "2025-12-23T14:49:08.986144+00:00", "meta": {"OBJECT_NAME": "THEOS", "OBJECT_ID": "2008-049A", "EPOCH": "2025-12-23T07:41:49.764768", "MEAN_MOTION": 14.20098022, "ECCENTRICITY": 0.00012271, "INCLINATION": 98.5851, "RA_OF_ASC_NODE": 55.0978, "ARG_OF_PERICENTER": 93.2912, "MEAN_ANOMALY": 266.8405, "EPHEMERIS_TYPE": 0, "CLASSIFICATION_TYPE": "U", "NORAD_CAT_ID": 33396, "ELEMENT_SET_NO": 999, "REV_AT_EPOCH": 89300, "BSTAR": -1.406822e-06, "MEAN_MOTION_DOT": -4.6e-07, "MEAN_MOTION_DDOT": 0}, "tle": {"line1": "1 33396U 08049A   25357.32071487 -.00000046  00000+0 -14068-5 0  9994", "line2": "2 33396  98.5851  55.0978 0001227  93.2912 266.8405 14.20098022893003"}}, "geometry": {"type": "Point", "coordinates": [23.816814498072414, 73.90417349971773]}}, {"type": "Feature", "properties": {"norad_id": 33412, "name": "COSMO-SKYMED 3", "group": "resource", "lat": -76.6802240145334, "lon": -7.427005668317845, "alt_km": 563.9354908475789, "timestamp": "2025-12-23T14:49:08.986165+00:00", "meta": {"OBJECT_NAME": "COSMO-SKYMED 3", "OBJECT_ID": "2008-054A", "EPOCH": "2025-12-23T05:41:47.418432", "MEAN_MOTION": 15.05441687, "ECCENTRICITY": 0.00170766, "INCLINATION": 97.8455, "RA_OF_ASC_NODE": 207.8065, "ARG_OF_PERICENTER": 137.312, "MEAN_ANOMALY": 222.9436, "EPHEMERIS_TYPE": 0, "CLASSIFICATION_TYPE": "U", "NORAD_CAT_ID": 33412, "ELEMENT_SET_NO": 999, "REV_AT_EPOCH": 93045, "BSTAR": 0.00023784714, "MEAN_MOTION_DOT": 3.36e-05, "MEAN_MOTION_DDOT": 0}, "tle": {"line1": "1 33412U 08054A   25357.23735438  .00003360  00000+0  23785-3 0  9996", "line2": "2 33412  97.8455 207.8065 0017076 137.3120 222.9436 15.05441687930459"}}, "geometry": {"type": "Point", "coordinates": [-7.427005668317845, -76.6802240145334]}}, {"type": "Feature", "properties": {"norad_id": 33446, "name": "YAOGAN-4", "group": "resource", "lat": 70.85757175643396, "lon": -96.03231981240968, "alt_km": 621.6234820830896, "timestamp": "2025-12-23T14:49:08.986178+00:00", "meta": {"OBJECT_NAME": "YAOGAN-4", "OBJECT_ID": "2008-061A", "EPOCH": "2025-12-23T01:32:09.119616", "MEAN_MOTION": 14.8271129, "ECCENTRICITY": 0.00130344, "INCLINATION": 97.9196, "RA_OF_ASC_NODE": 287.0626, "ARG_OF_PERICENTER": 286.8037, "MEAN_ANOMALY": 73.1747, "EPHEMERIS_TYPE": 0, "CLASSIFICATION_TYPE": "U", "NORAD_CAT_ID": 33446, "ELEMENT_SET_NO": 999, "REV_AT_EPOCH": 91956, "BSTAR": 0.0001704414, "MEAN_MOTION_DOT": 1.323e-05, "MEAN_MOTION_DDOT": 0}, "tle": {"line1": "1 33446U 08061A   25357.06399444  .00001323  00000+0  17044-3 0  9993", "line2": "2 33446  97.9196 287.0626 0013034 286.8037  73.1747 14.82711290919563"}}, "geometry": {"type": "Point", "coordinates": [-96.03231981240968, 70.85757175643396]}}]}